NORAD_CAT_ID,OBJECT_NAME,OBJECT_TYPE,EPOCH,MEAN_MOTION,ECCENTRICITY,INCLINATION,RA_OF_ASC_NODE,ARG_OF_PERICENTER,MEAN_ANOMALY,BSTAR,MEAN_MOTION_DOT,MEAN_MOTION_DDOT,TLE_LINE0,TLE_LINE1,TLE_LINE2,SEMIMAJOR_AXIS,PERIOD,APOGEE,PERIGEE,DECAYED
49456.0,STARLINK-3124,PAYLOAD,2022-04-12 04:00:00,15.08816,0.0002887,53.2181,147.5085,26.3998,179.0333,0.00039682,6.029e-05,0.0,0 STARLINK-3124,1 49456U 21104BA  22102.16667824  .00006029  00000-0  39682-3 0  9991,2 49456  53.2181 147.5085 0002887  26.3998 179.0333 15.08816000 24340,6917.954000000002,95.439,541.816,537.822,0.0
49456.0,STARLINK-3124,PAYLOAD,2022-04-12 14:00:01,15.08794953,0.0003165,53.218,145.64,24.0746,285.817,0.0029477,0.00046882,0.0,0 STARLINK-3124,1 49456U 21104BA  22102.58334491  .00046882  00000-0  29477-2 0  9999,2 49456  53.2180 145.6400 0003165  24.0746 285.8170 15.08794953  3608,6918.018,95.44,542.073,537.694,0.0
49456.0,STARLINK-3124,PAYLOAD,2022-04-12 22:00:00,15.08805809,0.000298,53.2184,144.1426,25.5482,295.9129,0.002288,0.00036281,0.0,0 STARLINK-3124,1 49456U 21104BA  22102.91667824  .00036281  00000-0  22880-2 0  9998,2 49456  53.2184 144.1426 0002980  25.5482 295.9129 15.08805809  3565,6917.985,95.44,541.911,537.788,0.0
49456.0,STARLINK-3124,PAYLOAD,2022-04-13 04:00:00,15.08790826,0.0002986,53.218,143.0215,27.3027,212.8321,0.0141889999999999,0.00232772,0.0,0 STARLINK-3124,1 49456U 21104BA  22103.16667824  .00232772  00000-0  14189-1 0  9991,2 49456  53.2180 143.0215 0002986  27.3027 212.8321 15.08790826 24495,6918.031,95.441,541.961,537.83,0.0
49456.0,STARLINK-3124,PAYLOAD,2022-04-13 12:00:00,15.08814184,0.0003249,53.2183,141.5252,26.4588,225.2643,0.0025423,0.00040379,0.0,0 STARLINK-3124,1 49456U 21104BA  22103.50001157  .00040379  00000-0  25423-2 0  9994,2 49456  53.2183 141.5252 0003249  26.4588 225.2643 15.08814184 24542,6917.959,95.439,542.072,537.577,0.0
49456.0,STARLINK-3124,PAYLOAD,2022-04-13 14:00:03,15.08819459,0.0003235,53.218,141.1509,25.6795,319.0644,0.0026854,0.00042688,0.0,0 STARLINK-3124,1 49456U 21104BA  22103.58336806  .00042688  00000-0  26854-2 0  9998,2 49456  53.2180 141.1509 0003235  25.6795 319.0644 15.08819459  3568,6917.943,95.439,542.0459999999998,537.57,0.0
49456.0,STARLINK-3124,PAYLOAD,2022-04-13 22:00:00,15.08822944,0.0003015,53.2182,139.6529,28.241,327.9741,0.0025975,0.00041276,0.0,0 STARLINK-3124,1 49456U 21104BA  22103.91667824  .00041276  00000-0  25975-2 0  9997,2 49456  53.2182 139.6529 0003015  28.2410 327.9741 15.08822944  3629,6917.933000000001,95.439,541.883,537.712,0.0
49456.0,STARLINK-3124,PAYLOAD,2022-04-14 06:00:00,15.08862545,0.0003107,53.2183,138.1574,28.9291,338.8687,-0.0017247,-0.00027652,0.0,0 STARLINK-3124,1 49456U 21104BA  22104.25001157 -.00027652  00000-0 -17247-2 0  9993,2 49456  53.2183 138.1574 0003107  28.9291 338.8687 15.08862545 24657,6917.811,95.436,541.826,537.5269999999998,0.0
49456.0,STARLINK-3124,PAYLOAD,2022-04-14 14:00:01,15.08836964,0.0003266,53.2178,136.6619,27.2267,352.1825,0.0019596,0.00031036,0.0,0 STARLINK-3124,1 49456U 21104BA  22104.58334491  .00031036  00000-0  19596-2 0  9997,2 49456  53.2178 136.6619 0003266  27.2267 352.1825 15.08836964  3606,6917.89,95.438,542.014,537.495,0.0
49456.0,STARLINK-3124,PAYLOAD,2022-04-14 20:00:01,15.08854671,0.0003096,53.2179,135.5382,29.5091,268.6068,-0.00012325,-2.251e-05,0.0,0 STARLINK-3124,1 49456U 21104BA  22104.83334491 -.00002251  00000-0 -12325-3 0  9998,2 49456  53.2179 135.5382 0003096  29.5091 268.6068 15.08854671 24746,6917.8359999999975,95.437,541.842,537.559,0.0
49456.0,STARLINK-3124,PAYLOAD,2022-04-14 22:00:00,15.08833498,0.0003028,53.2177,135.1638,30.149,0.8771,0.0027721,0.00044101,0.0,0 STARLINK-3124,1 49456U 21104BA  22104.91667824  .00044101  00000-0  27721-2 0  9999,2 49456  53.2177 135.1638 0003028  30.1490   0.8771 15.08833498  3614,6917.9,95.438,541.86,537.6709999999998,0.0
49456.0,STARLINK-3124,PAYLOAD,2022-04-15 12:00:00,15.08863489,0.0003269,53.2175,132.5469,29.4956,291.8762,0.0014685,0.00023177,0.0,0 STARLINK-3124,1 49456U 21104BA  22105.50001157  .00023177  00000-0  14685-2 0  9991,2 49456  53.2175 132.5469 0003269  29.4956 291.8762 15.08863489 24843,6917.809,95.436,541.935,537.4119999999998,0.0
49456.0,STARLINK-3124,PAYLOAD,2022-04-15 12:10:17,15.08866857,0.0003159,53.2174,132.5131,31.5289,328.5892,0.00050748,7.804e-05,0.0,0 STARLINK-3124,1 49456U 21104BA  22105.50714199  .00007804  00000-0  50748-3 0  9998,2 49456  53.2174 132.5131 0003159  31.5289 328.5892 15.08866857 23774,6917.7980000000025,95.436,541.849,537.4780000000002,0.0
49456.0,STARLINK-3124,PAYLOAD,2022-04-15 20:00:01,15.08851418,0.0003041,53.2172,131.0487,30.1828,302.8265,2.0863000000000007e-05,4.3e-07,0.0,0 STARLINK-3124,1 49456U 21104BA  22105.83334491  .00000043  00000-0  20863-4 0  9991,2 49456  53.2172 131.0487 0003041  30.1828 302.8265 15.08851418 24894,6917.845,95.437,541.814,537.607,0.0
49456.0,STARLINK-3124,PAYLOAD,2022-04-15 22:00:00,15.08830908,0.0002967,53.2171,130.6743,29.7503,36.1657,0.002169,0.00034393,0.0,0 STARLINK-3124,1 49456U 21104BA  22105.91667824  .00034393  00000-0  21690-2 0  9991,2 49456  53.2171 130.6743 0002967  29.7503  36.1657 15.08830908  3578,6917.908,95.438,541.826,537.721,0.0
49456.0,STARLINK-3124,PAYLOAD,2022-04-16 12:00:02,15.08786808,0.0003157,53.2168,128.0575,26.4686,329.8107,0.0019659,0.00031094,0.0,0 STARLINK-3124,1 49456U 21104BA  22106.50002315  .00031094  00000-0  19659-2 0  9992,2 49456  53.2168 128.0575 0003157  26.4686 329.8107 15.08786808 24996,6918.043000000002,95.441,542.092,537.724,0.0
49456.0,STARLINK-3124,PAYLOAD,2022-04-16 14:00:01,15.08795044,0.0003152,53.2164,127.6831,25.5592,63.541,0.0010485,0.00016418,0.0,0 STARLINK-3124,1 49456U 21104BA  22106.58334491  .00016418  00000-0  10485-2 0  9994,2 49456  53.2164 127.6831 0003152  25.5592  63.5410 15.08795044  3575,6918.018,95.44,542.063,537.702,0.0
49456.0,STARLINK-3124,PAYLOAD,2022-04-16 22:00:01,15.08781155,0.0002927,53.2165,126.185,28.4962,72.2221,0.0026921,0.0004275,0.0,0 STARLINK-3124,1 49456U 21104BA  22106.91668981  .00042750  00000-0  26921-2 0  9995,2 49456  53.2165 126.1850 0002927  28.4962  72.2221 15.08781155  3578,6918.06,95.441,541.95,537.9,0.0
49456.0,STARLINK-3124,PAYLOAD,2022-04-17 04:00:00,15.08823277,0.0003005,53.2167,125.0636,29.50800000000001,349.7965,-0.0016308,-0.00026139,0.0,0 STARLINK-3124,1 49456U 21104BA  22107.16667824 -.00026139  00000-0 -16308-2 0  9991,2 49456  53.2167 125.0636 0003005  29.5080 349.7965 15.08823277 25091,6917.932,95.439,541.875,537.7180000000002,0.0
49456.0,STARLINK-3124,PAYLOAD,2022-04-17 14:00:01,15.08817635,0.0003191,53.2161,123.1939,26.4799,97.2733,0.0024395,0.00038729,0.0,0 STARLINK-3124,1 49456U 21104BA  22107.58334491  .00038729  00000-0  24395-2 0  9999,2 49456  53.2161 123.1939 0003191  26.4799  97.2733 15.08817635  3566,6917.949000000001,95.439,542.021,537.606,0.0
49456.0,STARLINK-3124,PAYLOAD,2022-04-17 20:00:01,15.08827539,0.0002986,53.2164,122.0702,28.2715,14.1737,0.0015381,0.00024268,0.0,0 STARLINK-3124,1 49456U 21104BA  22107.83334491  .00024268  00000-0  15381-2 0  9995,2 49456  53.2164 122.0702 0002986  28.2715  14.1737 15.08827539 25205,6917.918000000002,95.438,541.849,537.7180000000002,0.0
49456.0,STARLINK-3124,PAYLOAD,2022-04-17 22:00:00,15.08822242,0.0002976,53.2163,121.6958,28.7819,106.563,0.002679,0.00042588,0.0,0 STARLINK-3124,1 49456U 21104BA  22107.91667824  .00042588  00000-0  26790-2 0  9994,2 49456  53.2163 121.6958 0002976  28.7819 106.5630 15.08822242  3560,6917.935,95.439,541.8580000000002,537.741,0.0
49456.0,STARLINK-3124,PAYLOAD,2022-04-18 14:00:01,15.08853551,0.0003276,53.2164,118.7045,28.1588,130.3804,7.0431e-05,8.33e-06,0.0,0 STARLINK-3124,1 49456U 21104BA  22108.58334491  .00000833  00000-0  70431-4 0  9999,2 49456  53.2164 118.7045 0003276  28.1588 130.3804 15.08853551  3606,6917.839,95.437,541.97,537.438,0.0
49456.0,STARLINK-3124,PAYLOAD,2022-04-18 20:00:01,15.08840328,0.0003084,53.2168,117.5808,29.9632,47.2936,0.0017694,0.00027986,0.0,0 STARLINK-3124,1 49456U 21104BA  22108.83334491  .00027986  00000-0  17694-2 0  9995,2 49456  53.2168 117.5808 0003084  29.9632  47.2936 15.08840328 25356,6917.879,95.438,541.878,537.611,0.0
49456.0,STARLINK-3124,PAYLOAD,2022-04-18 22:00:00,15.08844129,0.0003078999999999,53.2168,117.2064,30.6901,139.4677,0.0015126,0.00023871,0.0,0 STARLINK-3124,1 49456U 21104BA  22108.91667824  .00023871  00000-0  15126-2 0  9990,2 49456  53.2168 117.2064 0003079  30.6901 139.4677 15.08844129  3567,6917.868,95.437,541.863,537.6030000000002,0.0
49456.0,STARLINK-3124,PAYLOAD,2022-04-19 14:00:01,15.08847715,0.000331,53.2171,114.2151,28.6825,164.683,-0.00041644,-6.912e-05,0.0,0 STARLINK-3124,1 49456U 21104BA  22109.58334491 -.00006912  00000-0 -41644-3 0  9999,2 49456  53.2171 114.2151 0003310  28.6825 164.6830 15.08847715 25463,6917.857,95.437,542.012,537.432,0.0
49456.0,STARLINK-3124,PAYLOAD,2022-04-20 14:00:01,15.08840254,0.0003331,53.2179,109.7261,29.4229,198.7213,-0.0010213,-0.00016508,0.0,0 STARLINK-3124,1 49456U 21104BA  22110.58334491 -.00016508  00000-0 -10213-2 0  9990,2 49456  53.2179 109.7261 0003331  29.4229 198.7213 15.08840254  3596,6917.88,95.438,542.049,537.44,0.0
49456.0,STARLINK-3124,PAYLOAD,2022-04-20 20:00:01,15.08813109,0.0003153,53.2183,108.6026,31.3136,115.5306,0.0026025,0.00041346,0.0,0 STARLINK-3124,1 49456U 21104BA  22110.83334491  .00041346  00000-0  26025-2 0  9992,2 49456  53.2183 108.6026 0003153  31.3136 115.5306 15.08813109 25659,6917.9630000000025,95.439,542.009,537.646,0.0
49456.0,STARLINK-3124,PAYLOAD,2022-04-20 22:00:00,15.08818396,0.0003153,53.2183,108.2283,32.4947,207.2429,0.0025456,0.00040436,0.0,0 STARLINK-3124,1 49456U 21104BA  22110.91667824  .00040436  00000-0  25456-2 0  9996,2 49456  53.2183 108.2283 0003153  32.4947 207.2429 15.08818396  3588,6917.946,95.439,541.993,537.63,0.0
